[{"OBJECT_NAME":"OBJECT J","OBJECT_ID":"2025-155J","EPOCH":"2026-03-09T22:09:22.347648","MEAN_MOTION":15.2758258,"ECCENTRICITY":0.00088188,"INCLINATION":97.4475,"RA_OF_ASC_NODE":37.3123,"ARG_OF_PERICENTER":150.071,"MEAN_ANOMALY":210.1035,"EPHEMERIS_TYPE":0,"CLASSIFICATION_TYPE":"U","NORAD_CAT_ID":64884,"ELEMENT_SET_NO":999,"REV_AT_EPOCH":6559,"BSTAR":0.00051444498,"MEAN_MOTION_DOT":0.00013827,"MEAN_MOTION_DDOT":0},{"OBJECT_NAME":"STARLINK-36087","OBJECT_ID":"2025-281G","EPOCH":"2026-03-09T03:15:47.016576","MEAN_MOTION":15.27574962,"ECCENTRICITY":0.00016866,"INCLINATION":43.0031,"RA_OF_ASC_NODE":346.3599,"ARG_OF_PERICENTER":266.0097,"MEAN_ANOMALY":94.0562,"EPHEMERIS_TYPE":0,"CLASSIFICATION_TYPE":"U","NORAD_CAT_ID":66854,"ELEMENT_SET_NO":999,"REV_AT_EPOCH":1610,"BSTAR":0.0012655263,"MEAN_MOTION_DOT":0.00034721,"MEAN_MOTION_DDOT":0}]
